{"fetched_at":"2026-07-19T07:05:34.422Z","source":"https://celestrak.org/NORAD/elements/gp.php?NAME=SENTINEL&FORMAT=JSON","constellation":"sentinel-5p","records":[{"OBJECT_NAME":"SENTINEL-5P","OBJECT_ID":"2017-064A","EPOCH":"2026-07-18T18:42:33.386112","CLASSIFICATION_TYPE":"U","MEAN_MOTION":14.19523568,"ECCENTRICITY":0.0001165,"INCLINATION":98.7929,"RA_OF_ASC_NODE":141.6874,"ARG_OF_PERICENTER":93.9963,"MEAN_ANOMALY":266.1346,"EPHEMERIS_TYPE":0,"NORAD_CAT_ID":42969,"ELEMENT_SET_NO":999,"REV_AT_EPOCH":45404,"BSTAR":0.0000221,"MEAN_MOTION_DOT":2e-8,"MEAN_MOTION_DDOT":0}]}
