SENTINEL-5P             
1 42969U 17064A   26199.77955308  .00000002  00000+0  22100-4 0  9999
2 42969  98.7929 141.6874 0001165  93.9963 266.1346 14.19523568454048
